[{"OBJECT_NAME":"IRIDIUM 124","OBJECT_ID":"2017-039H","EPOCH":"2026-04-25T18:38:50.722080","MEAN_MOTION":14.43280918,"ECCENTRICITY":0.00022127,"INCLINATION":86.4458,"RA_OF_ASC_NODE":312.29,"ARG_OF_PERICENTER":88.9887,"MEAN_ANOMALY":271.1567,"EPHEMERIS_TYPE":0,"CLASSIFICATION_TYPE":"U","NORAD_CAT_ID":42810,"ELEMENT_SET_NO":999,"REV_AT_EPOCH":46755,"BSTAR":1.0641448e-5,"MEAN_MOTION_DOT":5.6e-7,"MEAN_MOTION_DDOT":0},{"OBJECT_NAME":"IRIDIUM 128","OBJECT_ID":"2017-039J","EPOCH":"2026-04-25T21:11:10.757760","MEAN_MOTION":14.34217036,"ECCENTRICITY":0.00022588,"INCLINATION":86.3986,"RA_OF_ASC_NODE":47.0076,"ARG_OF_PERICENTER":80.8169,"MEAN_ANOMALY":279.3282,"EPHEMERIS_TYPE":0,"CLASSIFICATION_TYPE":"U","NORAD_CAT_ID":42811,"ELEMENT_SET_NO":999,"REV_AT_EPOCH":46248,"BSTAR":-2.5296762e-5,"MEAN_MOTION_DOT":-5.1e-7,"MEAN_MOTION_DDOT":0},{"OBJECT_NAME":"IRIDIUM 121","OBJECT_ID":"2017-039K","EPOCH":"2026-04-25T18:31:00.767424","MEAN_MOTION":14.34219195,"ECCENTRICITY":0.00022118,"INCLINATION":86.4016,"RA_OF_ASC_NODE":15.575,"ARG_OF_PERICENTER":82.1603,"MEAN_ANOMALY":277.9844,"EPHEMERIS_TYPE":0,"CLASSIFICATION_TYPE":"U","NORAD_CAT_ID":42812,"ELEMENT_SET_NO":999,"REV_AT_EPOCH":46231,"BSTAR":7.126841e-5,"MEAN_MOTION_DOT":2.19e-6,"MEAN_MOTION_DDOT":0},{"OBJECT_NAME":"IRIDIUM 133","OBJECT_ID":"2017-061A","EPOCH":"2026-04-25T20:16:22.725408","MEAN_MOTION":14.34217454,"ECCENTRICITY":0.00021514,"INCLINATION":86.3986,"RA_OF_ASC_NODE":47.1398,"ARG_OF_PERICENTER":85.1012,"MEAN_ANOMALY":275.043,"EPHEMERIS_TYPE":0,"CLASSIFICATION_TYPE":"U","NORAD_CAT_ID":42955,"ELEMENT_SET_NO":999,"REV_AT_EPOCH":44727,"BSTAR":-5.50737e-6,"MEAN_MOTION_DOT":4.0e-8,"MEAN_MOTION_DDOT":0},{"OBJECT_NAME":"IRIDIUM 100","OBJECT_ID":"2017-061B","EPOCH":"2026-04-25T20:07:14.648736","MEAN_MOTION":14.34217235,"ECCENTRICITY":0.0002284,"INCLINATION":86.3984,"RA_OF_ASC_NODE":47.062,"ARG_OF_PERICENTER":84.6834,"MEAN_ANOMALY":275.4622,"EPHEMERIS_TYPE":0,"CLASSIFICATION_TYPE":"U","NORAD_CAT_ID":42956,"ELEMENT_SET_NO":999,"REV_AT_EPOCH":44727,"BSTAR":2.6209265e-5,"MEAN_MOTION_DOT":9.3e-7,"MEAN_MOTION_DDOT":0},{"OBJECT_NAME":"IRIDIUM 122","OBJECT_ID":"2017-061C","EPOCH":"2026-04-25T21:02:02.751936","MEAN_MOTION":14.34217689,"ECCENTRICITY":0.0002289,"INCLINATION":86.3987,"RA_OF_ASC_NODE":47.0462,"ARG_OF_PERICENTER":87.4639,"MEAN_ANOMALY":272.6819,"EPHEMERIS_TYPE":0,"CLASSIFICATION_TYPE":"U","NORAD_CAT_ID":42957,"ELEMENT_SET_NO":999,"REV_AT_EPOCH":44728,"BSTAR":2.264141e-5,"MEAN_MOTION_DOT":8.3e-7,"MEAN_MOTION_DDOT":0},{"OBJECT_NAME":"IRIDIUM 129","OBJECT_ID":"2017-061D","EPOCH":"2026-04-25T21:38:34.684512","MEAN_MOTION":14.34217035,"ECCENTRICITY":0.00018332,"INCLINATION":86.3986,"RA_OF_ASC_NODE":47.1023,"ARG_OF_PERICENTER":86.3358,"MEAN_ANOMALY":273.8047,"EPHEMERIS_TYPE":0,"CLASSIFICATION_TYPE":"U","NORAD_CAT_ID":42958,"ELEMENT_SET_NO":999,"REV_AT_EPOCH":44730,"BSTAR":-3.0453595e-5,"MEAN_MOTION_DOT":-6.6e-7,"MEAN_MOTION_DDOT":0},{"OBJECT_NAME":"IRIDIUM 119","OBJECT_ID":"2017-061E","EPOCH":"2026-04-25T20:52:54.722784","MEAN_MOTION":14.34217404,"ECCENTRICITY":0.0002114,"INCLINATION":86.3987,"RA_OF_ASC_NODE":47.1112,"ARG_OF_PERICENTER":88.5252,"MEAN_ANOMALY":271.6186,"EPHEMERIS_TYPE":0,"CLASSIFICATION_TYPE":"U","NORAD_CAT_ID":42959,"ELEMENT_SET_NO":999,"REV_AT_EPOCH":44731,"BSTAR":-1.1219732e-5,"MEAN_MOTION_DOT":-1.2e-7,"MEAN_MOTION_DDOT":0},{"OBJECT_NAME":"IRIDIUM 107","OBJECT_ID":"2017-061F","EPOCH":"2026-04-25T21:20:18.818016","MEAN_MOTION":14.34217012,"ECCENTRICITY":0.00023613,"INCLINATION":86.3989,"RA_OF_ASC_NODE":47.1243,"ARG_OF_PERICENTER":87.7156,"MEAN_ANOMALY":272.431,"EPHEMERIS_TYPE":0,"CLASSIFICATION_TYPE":"U","NORAD_CAT_ID":42960,"ELEMENT_SET_NO":999,"REV_AT_EPOCH":44732,"BSTAR":-7.5884455e-5,"MEAN_MOTION_DOT":-1.93e-6,"MEAN_MOTION_DDOT":0},{"OBJECT_NAME":"IRIDIUM 132","OBJECT_ID":"2017-061G","EPOCH":"2026-04-25T21:29:26.727072","MEAN_MOTION":14.34217896,"ECCENTRICITY":0.00022587,"INCLINATION":86.3988,"RA_OF_ASC_NODE":47.1012,"ARG_OF_PERICENTER":85.4744,"MEAN_ANOMALY":274.671,"EPHEMERIS_TYPE":0,"CLASSIFICATION_TYPE":"U","NORAD_CAT_ID":42961,"ELEMENT_SET_NO":999,"REV_AT_EPOCH":44732,"BSTAR":1.0753721e-5,"MEAN_MOTION_DOT":5.0e-7,"MEAN_MOTION_DDOT":0},{"OBJECT_NAME":"IRIDIUM 136","OBJECT_ID":"2017-061H","EPOCH":"2026-04-25T20:34:38.755200","MEAN_MOTION":14.34217284,"ECCENTRICITY":0.00021605,"INCLINATION":86.3986,"RA_OF_ASC_NODE":47.1237,"ARG_OF_PERICENTER":87.5772,"MEAN_ANOMALY":272.5671,"EPHEMERIS_TYPE":0,"CLASSIFICATION_TYPE":"U","NORAD_CAT_ID":42962,"ELEMENT_SET_NO":999,"REV_AT_EPOCH":44733,"BSTAR":-1.7618137e-5,"MEAN_MOTION_DOT":-3.0e-7,"MEAN_MOTION_DDOT":0},{"OBJECT_NAME":"IRIDIUM 139","OBJECT_ID":"2017-061J","EPOCH":"2026-04-25T20:43:46.727328","MEAN_MOTION":14.34217382,"ECCENTRICITY":0.0002189,"INCLINATION":86.3988,"RA_OF_ASC_NODE":47.1824,"ARG_OF_PERICENTER":83.8138,"MEAN_ANOMALY":276.3307,"EPHEMERIS_TYPE":0,"CLASSIFICATION_TYPE":"U","NORAD_CAT_ID":42963,"ELEMENT_SET_NO":999,"REV_AT_EPOCH":44734,"BSTAR":-1.4559264e-5,"MEAN_MOTION_DOT":-2.1e-7,"MEAN_MOTION_DDOT":0},{"OBJECT_NAME":"IRIDIUM 125","OBJECT_ID":"2017-061K","EPOCH":"2026-04-25T20:25:30.741600","MEAN_MOTION":14.34217644,"ECCENTRICITY":0.00023519,"INCLINATION":86.399,"RA_OF_ASC_NODE":47.2472,"ARG_OF_PERICENTER":97.737,"MEAN_ANOMALY":262.4092,"EPHEMERIS_TYPE":0,"CLASSIFICATION_TYPE":"U","NORAD_CAT_ID":42964,"ELEMENT_SET_NO":999,"REV_AT_EPOCH":44735,"BSTAR":-5.483507e-6,"MEAN_MOTION_DOT":4.0e-8,"MEAN_MOTION_DDOT":0},{"OBJECT_NAME":"IRIDIUM 135","OBJECT_ID":"2017-083A","EPOCH":"2026-04-25T16:27:19.181088","MEAN_MOTION":14.3421788,"ECCENTRICITY":0.00021911,"INCLINATION":86.3988,"RA_OF_ASC_NODE":343.9711,"ARG_OF_PERICENTER":86.2512,"MEAN_ANOMALY":273.8935,"EPHEMERIS_TYPE":0,"CLASSIFICATION_TYPE":"U","NORAD_CAT_ID":43070,"ELEMENT_SET_NO":999,"REV_AT_EPOCH":43662,"BSTAR":8.660516e-6,"MEAN_MOTION_DOT":4.4e-7,"MEAN_MOTION_DDOT":0},{"OBJECT_NAME":"IRIDIUM 138","OBJECT_ID":"2017-083B","EPOCH":"2026-04-25T17:03:51.135264","MEAN_MOTION":14.34217526,"ECCENTRICITY":0.00018623,"INCLINATION":86.3996,"RA_OF_ASC_NODE":343.6477,"ARG_OF_PERICENTER":94.84,"MEAN_ANOMALY":265.3009,"EPHEMERIS_TYPE":0,"CLASSIFICATION_TYPE":"U","NORAD_CAT_ID":43071,"ELEMENT_SET_NO":999,"REV_AT_EPOCH":43661,"BSTAR":-7.127383e-6,"MEAN_MOTION_DOT":0,"MEAN_MOTION_DDOT":0},{"OBJECT_NAME":"IRIDIUM 116","OBJECT_ID":"2017-083C","EPOCH":"2026-04-25T16:18:11.126016","MEAN_MOTION":14.34218081,"ECCENTRICITY":0.0002331,"INCLINATION":86.3986,"RA_OF_ASC_NODE":343.9603,"ARG_OF_PERICENTER":80.7988,"MEAN_ANOMALY":279.3471,"EPHEMERIS_TYPE":0,"CLASSIFICATION_TYPE":"U","NORAD_CAT_ID":43072,"ELEMENT_SET_NO":999,"REV_AT_EPOCH":43664,"BSTAR":1.0621472e-5,"MEAN_MOTION_DOT":5.0e-7,"MEAN_MOTION_DDOT":0},{"OBJECT_NAME":"IRIDIUM 130","OBJECT_ID":"2017-083D","EPOCH":"2026-04-25T17:12:59.211936","MEAN_MOTION":14.34217545,"ECCENTRICITY":0.00023119,"INCLINATION":86.3992,"RA_OF_ASC_NODE":344.2142,"ARG_OF_PERICENTER":85.3368,"MEAN_ANOMALY":274.8092,"EPHEMERIS_TYPE":0,"CLASSIFICATION_TYPE":"U","NORAD_CAT_ID":43073,"ELEMENT_SET_NO":999,"REV_AT_EPOCH":43659,"BSTAR":-1.8334869e-5,"MEAN_MOTION_DOT":-3.2e-7,"MEAN_MOTION_DDOT":0}]
